      2.10          N: GNSS NAV DATA                        RINEX VERSION / TYPE
fic2rin                                 02/16/2019 00:18:30 PGM / RUN BY / DATE
                                                            END OF HEADER
12 19  2 15 12  0  0.0 2.677650190890e-04-3.183231456205e-12 0.000000000000e+00
    1.820000000000e+02 9.846875000000e+01 3.817659020822e-09-1.656796227756e+00
    5.166977643967e-06 7.433389546350e-03 6.776303052902e-06 5.153703720093e+03
    4.752000000000e+05 1.545995473862e-07-3.135621608620e+00 3.725290298462e-09
    9.842600436844e-01 2.608125000000e+02 1.033814048562e+00-7.769252191967e-09
    1.060758470562e-10 1.000000000000e+00 2.040000000000e+03 0.000000000000e+00
    3.400000000000e+00 0.000000000000e+00-1.257285475731e-08 1.820000000000e+02
    4.680000000000e+05 4.000000000000e+00
32 19  2 15 12  0  0.0-2.256850712001e-04 1.875832822407e-11 0.000000000000e+00
    8.400000000000e+01 1.375000000000e+00 4.968778398136e-09 2.595904347984e+00
    2.980232238770e-08 2.587833208963e-03 6.606802344322e-06 5.153748237610e+03
    4.752000000000e+05-5.587935447693e-08 9.790445695704e-01-2.048909664154e-08
    9.567033279280e-01 2.503437500000e+02-2.615899598604e+00-8.136767500455e-09
   -1.178620522847e-10 1.000000000000e+00 2.040000000000e+03 0.000000000000e+00
    2.400000000000e+00 0.000000000000e+00 4.656612873077e-10 8.400000000000e+01
    4.680000000000e+05 4.000000000000e+00
31 19  2 15 12  0  0.0 5.849264562130e-05-2.614797267597e-12 0.000000000000e+00
    8.100000000000e+01 3.443750000000e+01 4.470543358932e-09-1.351126540507e+00
    1.663342118263e-06 9.251649957150e-03 9.529292583466e-06 5.153562126160e+03
    4.752000000000e+05 2.048909664154e-08 2.063385238243e+00-1.359730958939e-07
    9.605710141527e-01 1.977812500000e+02-1.450575439432e-02-7.912829601114e-09
   -3.764442518427e-10 1.000000000000e+00 2.040000000000e+03 0.000000000000e+00
    2.400000000000e+00 0.000000000000e+00-1.350417733192e-08 8.100000000000e+01
    4.680000000000e+05 4.000000000000e+00
28 19  2 15 12  0  0.0 7.646423764527e-04 9.094947017729e-13 0.000000000000e+00
    7.500000000000e+01 1.307187500000e+02 3.665866983789e-09 2.687195503679e+00
    6.670132279396e-06 1.929730025586e-02 6.992369890213e-06 5.153707128525e+03
    4.752000000000e+05 1.937150955200e-07-3.112700097596e+00-7.264316082001e-08
    9.835605069802e-01 2.503125000000e+02-1.473732301792e+00-7.520670408967e-09
    1.000041655749e-10 1.000000000000e+00 2.040000000000e+03 0.000000000000e+00
    4.850000000000e+00 0.000000000000e+00-1.117587089539e-08 7.500000000000e+01
    4.680000000000e+05 4.000000000000e+00
16 19  2 15 11 59 44.0-1.936592161655e-05-2.501110429876e-12 0.000000000000e+00
    2.900000000000e+01 1.162187500000e+02 3.797658187707e-09 2.721866163302e+00
    5.912035703659e-06 1.057684724219e-02 6.511807441711e-06 5.153782514572e+03
    4.751840000000e+05-5.587935447693e-09-3.116722989188e+00-1.601874828339e-07
    9.846337446448e-01 2.687500000000e+02 5.395103279478e-01-7.789253025082e-09
    1.785788670980e-10 1.000000000000e+00 2.040000000000e+03 0.000000000000e+00
    2.400000000000e+00 0.000000000000e+00-1.071020960808e-08 2.900000000000e+01
    4.680300000000e+05 4.000000000000e+00
 4 19  2 15 12  0  0.0 1.139971427619e-04 9.322320693173e-12 0.000000000000e+00
    2.390000000000e+02 3.687500000000e+00 4.956277877439e-09-1.142027196074e+00
    1.024454832077e-07 3.248970024288e-04 6.329268217087e-06 5.153568437576e+03
    4.752000000000e+05-3.725290298462e-08 1.017266969001e+00-1.490116119385e-08
    9.597623481485e-01 2.540625000000e+02-1.502507682436e+00-8.166768750128e-09
   -1.450060400836e-10 1.000000000000e+00 2.040000000000e+03 0.000000000000e+00
    2.400000000000e+00 6.300000000000e+01-8.847564458847e-09 4.950000000000e+02
    4.680300000000e+05 4.000000000000e+00
12 19  2 15 11 59 44.0 2.677654847503e-04-3.183231456205e-12 0.000000000000e+00
    2.800000000000e+01 9.846875000000e+01 3.818016178556e-09-1.659129779586e+00
    5.166977643967e-06 7.433386868797e-03 6.774440407753e-06 5.153703725815e+03
    4.751840000000e+05 1.545995473862e-07-3.135621504753e+00 3.725290298462e-09
    9.842600466102e-01 2.608125000000e+02 1.033813905196e+00-7.769252191967e-09
    1.064330047904e-10 1.000000000000e+00 2.040000000000e+03 0.000000000000e+00
    2.400000000000e+00 0.000000000000e+00-1.257285475731e-08 2.800000000000e+01
    4.722000000000e+05 4.000000000000e+00
30 19  2 15 11 59 44.0-5.308212712407e-05-6.366462912410e-12 0.000000000000e+00
    0.000000000000e+00 2.878125000000e+01 4.774484590733e-09-9.343824822895e-01
    1.376494765282e-06 3.668206860311e-03 1.063197851181e-05 5.153628059387e+03
    4.751840000000e+05 4.470348358154e-08 2.079442828340e+00-1.266598701477e-07
    9.414988560636e-01 1.640625000000e+02-3.024981880854e+00-8.072479108300e-09
   -5.718095324479e-10 1.000000000000e+00 2.040000000000e+03 0.000000000000e+00
    2.400000000000e+00 0.000000000000e+00 3.725290298462e-09 0.000000000000e+00
    4.728000000000e+05 4.000000000000e+00
 3 19  2 15 11 59 44.0 1.830337569118e-04 1.818989403546e-12 0.000000000000e+00
    3.300000000000e+01-1.662500000000e+01 4.615549399016e-09-1.341424744296e+00
   -8.419156074524e-07 1.903736614622e-03 1.001916825771e-05 5.153578821182e+03
    4.751840000000e+05 4.842877388000e-08-5.947632721062e-02 1.117587089539e-08
    9.627810166996e-01 1.895625000000e+02 6.319567120137e-01-7.901757711354e-09
    5.425225982439e-10 1.000000000000e+00 2.040000000000e+03 0.000000000000e+00
    2.400000000000e+00 0.000000000000e+00 2.328306436539e-09 3.300000000000e+01
    4.730100000000e+05 4.000000000000e+00
 3 19  2 15 13 59 44.0 1.830463297665e-04 1.818989403546e-12 0.000000000000e+00
    3.400000000000e+01-1.509375000000e+01 4.615192241282e-09-2.911556980892e-01
   -7.580965757370e-07 1.904000644572e-03 1.002103090286e-05 5.153579235077e+03
    4.823840000000e+05 2.421438694000e-08-5.953336346069e-02 3.911554813385e-08
    9.627845774422e-01 1.919062500000e+02 6.319273263782e-01-7.962474526167e-09
    5.289506043444e-10 1.000000000000e+00 2.040000000000e+03 0.000000000000e+00
    2.400000000000e+00 0.000000000000e+00 2.328306436539e-09 3.400000000000e+01
    4.752000000000e+05 4.000000000000e+00
12 19  2 15 13 59 44.0 2.677426673472e-04-3.183231456205e-12 0.000000000000e+00
    2.900000000000e+01 1.043125000000e+02 3.991237679641e-09-6.091990448883e-01
    5.476176738739e-06 7.432835060172e-03 7.376074790955e-06 5.153700363159e+03
    4.823840000000e+05-4.470348358154e-08-3.135678072869e+00 1.080334186554e-07
    9.842596779549e-01 2.491562500000e+02 1.034042481757e+00-7.992118618106e-09
    7.893185925733e-11 1.000000000000e+00 2.040000000000e+03 0.000000000000e+00
    2.400000000000e+00 0.000000000000e+00-1.257285475731e-08 2.900000000000e+01
    4.752000000000e+05 4.000000000000e+00
30 19  2 15 13 59 44.0-5.312822759151e-05-6.366462912410e-12 0.000000000000e+00
    3.300000000000e+01 3.303125000000e+01 4.869845705764e-09 1.157550256386e-01
    1.503154635429e-06 3.668722230941e-03 1.018121838570e-05 5.153628757477e+03
    4.823840000000e+05 1.303851604462e-08 2.079384536907e+00-9.313225746155e-09
    9.414941264494e-01 1.699375000000e+02-3.024908164412e+00-8.179269270825e-09
   -6.103825677411e-10 1.000000000000e+00 2.040000000000e+03 0.000000000000e+00
    2.400000000000e+00 0.000000000000e+00 3.725290298462e-09 3.300000000000e+01
    4.752000000000e+05 4.000000000000e+00
20 19  2 15 13 59 44.0 5.222302861512e-04 3.410605131648e-13 0.000000000000e+00
    2.900000000000e+01-2.656250000000e+01 5.205931133642e-09 4.204657466803e-01
   -1.396983861923e-06 4.409647895955e-03 9.888783097267e-06 5.153675369263e+03
    4.823840000000e+05-5.215406417847e-08-1.778293256595e-01-7.823109626770e-08
    9.304063411701e-01 1.732812500000e+02 2.277027883968e+00-8.340704566681e-09
    4.718053668730e-10 1.000000000000e+00 2.040000000000e+03 0.000000000000e+00
    2.400000000000e+00 0.000000000000e+00-8.381903171539e-09 2.900000000000e+01
    4.752000000000e+05 4.000000000000e+00
 1 19  2 15 14  0  0.0-1.637395471334e-04-6.934897101019e-12 0.000000000000e+00
    7.000000000000e+00-1.104062500000e+02 4.074098273975e-09 7.240618587342e-01
   -5.828216671944e-06 8.396673016250e-03 8.828938007355e-06 5.153666921616e+03
    4.824000000000e+05-7.078051567078e-08-1.101987584675e+00 1.061707735062e-07
    9.742567737052e-01 2.171562500000e+02 6.841561730965e-01-8.013190924423e-09
   -7.107438910502e-11 1.000000000000e+00 2.040000000000e+03 0.000000000000e+00
    2.400000000000e+00 0.000000000000e+00 5.587935447693e-09 7.000000000000e+00
    4.752000000000e+05 4.000000000000e+00
 2 19  2 15 14  0  0.0-1.405188813806e-04-9.890754881781e-12 0.000000000000e+00
    3.000000000000e+01-1.282500000000e+02 4.610549190737e-09 1.033310430236e+00
   -6.748363375664e-06 1.888093166053e-02 7.910653948784e-06 5.153658569336e+03
    4.824000000000e+05-3.427267074585e-07-1.168639661116e+00-1.322478055954e-07
    9.533304123011e-01 2.268125000000e+02-1.773605119098e+00-8.463566827245e-09
   -8.786080261224e-11 1.000000000000e+00 2.040000000000e+03 0.000000000000e+00
    2.400000000000e+00 0.000000000000e+00-2.048909664154e-08 3.000000000000e+01
    4.752000000000e+05 4.000000000000e+00
21 19  2 15 14  0  0.0-2.496810629964e-04 7.162270776462e-12 0.000000000000e+00
    5.000000000000e+00-8.906250000000e+01 4.790556688772e-09-1.026176798417e+00
   -4.429370164871e-06 2.475282538217e-02 7.914379239082e-06 5.153797721863e+03
    4.824000000000e+05-4.153698682785e-07-1.163508750981e+00 2.793967723846e-07
    9.470298289422e-01 2.274375000000e+02-1.476912709103e+00-8.606429920923e-09
    1.039329006511e-10 1.000000000000e+00 2.040000000000e+03 0.000000000000e+00
    2.400000000000e+00 0.000000000000e+00-1.024454832077e-08 5.000000000000e+00
    4.752000000000e+05 4.000000000000e+00
